{
  "type": "FeatureCollection",
  "features": [
    {
      "type": "Feature",
      "properties": {
        "norad_id": 40115,
        "name": "WORLDVIEW-3 (WV-3)",
        "group": "resource",
        "lat": 72.52463620881237,
        "lon": 23.653032315557173,
        "alt_km": 607.4583655055085,
        "timestamp": "2025-12-03T06:58:42.898442+00:00",
        "meta_object_name": "WORLDVIEW-3 (WV-3)",
        "meta_object_id": "2014-048A",
        "meta_epoch": "2025-12-02T19:19:42.232224",
        "meta_mean_motion": 14.85470141,
        "meta_eccentricity": 0.0004063,
        "meta_inclination": 97.8627,
        "meta_ra_of_asc_node": 49.2103,
        "meta_arg_of_pericenter": 220.7527,
        "meta_mean_anomaly": 139.3385,
        "meta_ephemeris_type": 0,
        "meta_classification_type": "U",
        "meta_norad_cat_id": 40115,
        "meta_element_set_no": 999,
        "meta_rev_at_epoch": 61276,
        "meta_bstar": 0.00019355,
        "meta_mean_motion_dot": 1.616e-05,
        "meta_mean_motion_ddot": 0,
        "tle_line1": "1 40115U 14048A   25336.80534991  .00001616  00000+0  19355-3 0  9995",
        "tle_line2": "2 40115  97.8627  49.2103 0004063 220.7527 139.3385 14.85470141612768"
      },
      "geometry": {
        "type": "Point",
        "coordinates": [
          23.653032315557173,
          72.52463620881237
        ]
      }
    },
    {
      "type": "Feature",
      "properties": {
        "norad_id": 40118,
        "name": "GAOFEN-2",
        "group": "resource",
        "lat": 56.9791330109946,
        "lon": 23.881214701775992,
        "alt_km": 621.2404961641878,
        "timestamp": "2025-12-03T06:58:42.898453+00:00",
        "meta_object_name": "GAOFEN-2",
        "meta_object_id": "2014-049A",
        "meta_epoch": "2025-12-02T20:59:10.216320",
        "meta_mean_motion": 14.80579618,
        "meta_eccentricity": 0.0008174,
        "meta_inclination": 98.0399,
        "meta_ra_of_asc_node": 36.0252,
        "meta_arg_of_pericenter": 141.3817,
        "meta_mean_anomaly": 218.7981,
        "meta_ephemeris_type": 0,
        "meta_classification_type": "U",
        "meta_norad_cat_id": 40118,
        "meta_element_set_no": 999,
        "meta_rev_at_epoch": 61018,
        "meta_bstar": 0.00014238,
        "meta_mean_motion_dot": 1.039e-05,
        "meta_mean_motion_ddot": 0,
        "tle_line1": "1 40118U 14049A   25336.87442380  .00001039  00000+0  14238-3 0  9990",
        "tle_line2": "2 40118  98.0399  36.0252 0008174 141.3817 218.7981 14.80579618610188"
      },
      "geometry": {
        "type": "Point",
        "coordinates": [
          23.881214701775992,
          56.9791330109946
        ]
      }
    },
    {
      "type": "Feature",
      "properties": {
        "norad_id": 40143,
        "name": "YAOGAN-21",
        "group": "resource",
        "lat": 1.5580340759493851,
        "lon": 20.819061991478684,
        "alt_km": 495.63881017406857,
        "timestamp": "2025-12-03T06:58:42.898463+00:00",
        "meta_object_name": "YAOGAN-21",
        "meta_object_id": "2014-053A",
        "meta_epoch": "2025-12-02T21:30:48.909024",
        "meta_mean_motion": 15.23476806,
        "meta_eccentricity": 0.0010278,
        "meta_inclination": 97.1777,
        "meta_ra_of_asc_node": 20.6382,
        "meta_arg_of_pericenter": 71.6006,
        "meta_mean_anomaly": 288.6349,
        "meta_ephemeris_type": 0,
        "meta_classification_type": "U",
        "meta_norad_cat_id": 40143,
        "meta_element_set_no": 999,
        "meta_rev_at_epoch": 62504,
        "meta_bstar": 0.00044731,
        "meta_mean_motion_dot": 0.00010621,
        "meta_mean_motion_ddot": 0,
        "tle_line1": "1 40143U 14053A   25336.89639941  .00010621  00000+0  44731-3 0  9994",
        "tle_line2": "2 40143  97.1777  20.6382 0010278  71.6006 288.6349 15.23476806625040"
      },
      "geometry": {
        "type": "Point",
        "coordinates": [
          20.819061991478684,
          1.5580340759493851
        ]
      }
    },
    {
      "type": "Feature",
      "properties": {
        "norad_id": 40275,
        "name": "YAOGAN-22",
        "group": "resource",
        "lat": 60.452644533922665,
        "lon": 101.0131776440935,
        "alt_km": 1199.7704216686034,
        "timestamp": "2025-12-03T06:58:42.898473+00:00",
        "meta_object_name": "YAOGAN-22",
        "meta_object_id": "2014-063A",
        "meta_epoch": "2025-12-02T19:42:40.976640",
        "meta_mean_motion": 13.15522278,
        "meta_eccentricity": 0.000587,
        "meta_inclination": 100.7418,
        "meta_ra_of_asc_node": 120.101,
        "meta_arg_of_pericenter": 272.1655,
        "meta_mean_anomaly": 87.8784,
        "meta_ephemeris_type": 0,
        "meta_classification_type": "U",
        "meta_norad_cat_id": 40275,
        "meta_element_set_no": 999,
        "meta_rev_at_epoch": 53399,
        "meta_bstar": 0.00017431,
        "meta_mean_motion_dot": 1.9e-07,
        "meta_mean_motion_ddot": 0,
        "tle_line1": "1 40275U 14063A   25336.82130760  .00000019  00000+0  17431-3 0  9996",
        "tle_line2": "2 40275 100.7418 120.1010 0005870 272.1655  87.8784 13.15522278533991"
      },
      "geometry": {
        "type": "Point",
        "coordinates": [
          101.0131776440935,
          60.452644533922665
        ]
      }
    },
    {
      "type": "Feature",
      "properties": {
        "norad_id": 40298,
        "name": "ASNARO",
        "group": "resource",
        "lat": -13.820100471240481,
        "lon": -128.35328980400388,
        "alt_km": 510.5585384726992,
        "timestamp": "2025-12-03T06:58:42.898484+00:00",
        "meta_object_name": "ASNARO",
        "meta_object_id": "2014-070A",
        "meta_epoch": "2025-12-02T23:48:18.281664",
        "meta_mean_motion": 15.19164737,
        "meta_eccentricity": 0.0005098,
        "meta_inclination": 97.367,
        "meta_ra_of_asc_node": 53.1791,
        "meta_arg_of_pericenter": 149.6439,
        "meta_mean_anomaly": 210.5092,
        "meta_ephemeris_type": 0,
        "meta_classification_type": "U",
        "meta_norad_cat_id": 40298,
        "meta_element_set_no": 999,
        "meta_rev_at_epoch": 61421,
        "meta_bstar": 0.00065891,
        "meta_mean_motion_dot": 0.00013806,
        "meta_mean_motion_ddot": 0,
        "tle_line1": "1 40298U 14070A   25336.99187826  .00013806  00000+0  65891-3 0  9993",
        "tle_line2": "2 40298  97.3670  53.1791 0005098 149.6439 210.5092 15.19164737614218"
      },
      "geometry": {
        "type": "Point",
        "coordinates": [
          -128.35328980400388,
          -13.820100471240481
        ]
      }
    },
    {
      "type": "Feature",
      "properties": {
        "norad_id": 40310,
        "name": "YAOGAN-24",
        "group": "resource",
        "lat": -12.345926048989252,
        "lon": -73.45707274946969,
        "alt_km": 636.9417958858448,
        "timestamp": "2025-12-03T06:58:42.898494+00:00",
        "meta_object_name": "YAOGAN-24",
        "meta_object_id": "2014-072A",
        "meta_epoch": "2025-12-02T20:20:57.488640",
        "meta_mean_motion": 14.76142058,
        "meta_eccentricity": 0.0014222,
        "meta_inclination": 98.1217,
        "meta_ra_of_asc_node": 107.889,
        "meta_arg_of_pericenter": 168.7205,
        "meta_mean_anomaly": 191.4326,
        "meta_ephemeris_type": 0,
        "meta_classification_type": "U",
        "meta_norad_cat_id": 40310,
        "meta_element_set_no": 999,
        "meta_rev_at_epoch": 59475,
        "meta_bstar": 0.00020326,
        "meta_mean_motion_dot": 1.353e-05,
        "meta_mean_motion_ddot": 0,
        "tle_line1": "1 40310U 14072A   25336.84788760  .00001353  00000+0  20326-3 0  9996",
        "tle_line2": "2 40310  98.1217 107.8890 0014222 168.7205 191.4326 14.76142058594755"
      },
      "geometry": {
        "type": "Point",
        "coordinates": [
          -73.45707274946969,
          -12.345926048989252
        ]
      }
    },
    {
      "type": "Feature",
      "properties": {
        "norad_id": 40336,
        "name": "CBERS 4",
        "group": "resource",
        "lat": -52.60276879842714,
        "lon": -155.42194552789064,
        "alt_km": 780.5714441425944,
        "timestamp": "2025-12-03T06:58:42.898504+00:00",
        "meta_object_name": "CBERS 4",
        "meta_object_id": "2014-079A",
        "meta_epoch": "2025-12-02T19:51:29.055168",
        "meta_mean_motion": 14.3552773,
        "meta_eccentricity": 0.0001438,
        "meta_inclination": 98.3323,
        "meta_ra_of_asc_node": 35.1828,
        "meta_arg_of_pericenter": 127.4037,
        "meta_mean_anomaly": 232.728,
        "meta_ephemeris_type": 0,
        "meta_classification_type": "U",
        "meta_norad_cat_id": 40336,
        "meta_element_set_no": 999,
        "meta_rev_at_epoch": 57578,
        "meta_bstar": 9.0909e-05,
        "meta_mean_motion_dot": 2.2e-06,
        "meta_mean_motion_ddot": 0,
        "tle_line1": "1 40336U 14079A   25336.82741962  .00000220  00000+0  90909-4 0  9999",
        "tle_line2": "2 40336  98.3323  35.1828 0001438 127.4037 232.7280 14.35527730575786"
      },
      "geometry": {
        "type": "Point",
        "coordinates": [
          -155.42194552789064,
          -52.60276879842714
        ]
      }
    }
  ]
}